#aV2010  1 12  0  0   .00000000      96 DD+AD WGS84 FIT  NGA
## 1566 172800.00000000   900.00000000 55208  .0000000000000
+   32     1  2  3  4  5  6  7  8  9 10 11 12 13 14 15 16 17
+         18 19 20 21 22 23 24 25 26 27 28 29 30 31 32  0  0
+          0  0  0  0  0  0  0  0  0  0  0  0  0  0  0  0  0
+          0  0  0  0  0  0  0  0  0  0  0  0  0  0  0  0  0
+          0  0  0  0  0  0  0  0  0  0  0  0  0  0  0  0  0
++         0  0  0  0  0  0  0  0  0  0  0  0  0  0  0  0  0
++         0  0  0  0  0  0  0  0  0  0  0  0  0  0  0  0  0
++         0  0  0  0  0  0  0  0  0  0  0  0  0  0  0  0  0
++         0  0  0  0  0  0  0  0  0  0  0  0  0  0  0  0  0
++         0  0  0  0  0  0  0  0  0  0  0  0  0  0  0  0  0
%c cc cc ccc ccc cccc cccc cccc cccc ccccc ccccc ccccc ccccc
%c cc cc ccc ccc cccc cccc cccc cccc ccccc ccccc ccccc ccccc
%f  0.0000000  0.000000000  0.00000000000  0.000000000000000
%f  0.0000000  0.000000000  0.00000000000  0.000000000000000
%i    0    0    0    0      0      0      0      0         0
%i    0    0    0    0      0      0      0      0         0
/*      NGA, ST. LOUIS,MO.                                  
/*   EPHEMERIS COMPUTED FROM  3 DAYS OF DATA                
/* CCCCCCCCCCCCCCCCCCCCCCCCCCCCCCCCCCCCCCCCCCCCCCCCCCCCCCCCC
/* CCCCCCCCCCCCCCCCCCCCCCCCCCCCCCCCCCCCCCCCCCCCCCCCCCCCCCCCC
*  2010  1 12  6 30   .00000000                                                 
P  1  17375.801230  18080.115657   8819.688065    -78.797962                    
V  1   3487.704150  11023.888260 -29032.620951      -.033449                    
P  2 -12627.200253  13713.773745  18694.381511    214.529488                    
V  2 -24094.002901  -1829.733966 -15318.214483       .043081                    
P  3   9180.501334 -24661.447728  -2069.799008    500.792103                    
V  3   4711.568634   -386.860314  31059.181089       .053400                    
P  4 -23950.458495   6727.845557   9637.446472   -453.360755                    
V  4 -12354.992648  -3055.642964 -27719.540537      -.191170                    
P  5  -1643.881406  20617.450219  16596.880991    -17.584526                    
V  5 -12085.594301 -17452.278039  20543.765852       .039108                    
P  6  13268.248377 -22903.864587   1436.919643    260.567505                    
V  6   2551.052819   3183.912628  31155.637163      -.023024                    
P  7 -23409.699461  -7376.483860  10340.885604      4.481767                    
V  7  13101.288453  -1953.775576  28090.771369      -.006147                    
P  8 -26769.870219   -798.939412  -1948.126488      2.055076                    
V  8  -2288.760092  -1577.057235  31939.868816       .003153                    
P  9   6568.749755  14582.050961 -21874.857996     99.512695                    
V  9 -26153.851629    935.874305  -7415.959685       .021962                    
P 10  -6722.204210  16522.494797  19388.202771    -32.598683                    
V 10 -13174.440176 -21453.506866  13935.812485      -.010452                    
P 11 -11690.173480 -13863.640883 -19743.158684    -39.289764                    
V 11  23911.617779  -6644.790772  -9244.637855      -.020566                    
P 12  11125.642486  24035.580354  -2762.530090   -164.181835                    
V 12  -3829.713525  -1950.481542 -31607.456723       .049249                    
P 13 -12503.122822  -7254.994152  22153.784648    306.671190                    
V 13  15915.558478 -23462.622799   1278.319463       .000028                    
P 14  18825.129573  -9958.368419 -15654.854296      -.946890                    
V 14  -9720.808900  17688.138874 -22855.312055       .044646                    
P 15  -5180.231842  23851.981771 -10321.744370   -313.855506                    
V 15  -8897.951929  10111.921345  27860.604463       .020303                    
P 16   7681.767597 -15212.457582  20351.326191    -29.629569                    
V 16  13004.923812  22277.810055  12020.816743      -.041410                    
P 17 -18969.241414  11083.246538 -14697.088216    120.387932                    
V 17   8027.082846 -17244.294553 -23442.419351       .034086                    
P 18  18417.934003  13568.064235 -13546.733802     41.301494                    
V 18   5991.693517  16667.902388  24014.418352       .026655                    
P 19   5535.035830 -22807.464489 -12118.734428     -9.117266                    
V 19  11078.103264 -11239.011084  26414.976348      -.021878                    
P 20 -14211.615487 -22456.923320    810.757259     63.518792                    
V 20   2347.626001  -2799.522327 -31206.761486      -.007943                    
P 21  25767.500380   5131.391456   6038.232558    -33.467423                    
V 21  -7262.614437   2804.919416  29480.263915      -.024576                    
P 22  17051.830288    537.886224 -20212.773104    181.762575                    
V 22  11121.411821  23633.385673   9857.084391      -.011229                    
P 23  -5092.171779 -17321.026344  19348.575077    382.526751                    
V 23  13878.307995 -20480.409389 -14954.821479      -.008382                    
P 24  15028.770627  13359.972371  17330.541614    253.085699                    
V 24 -22017.971426    674.378536  18927.719995       .032337                    
P 25 -18702.895260  -9698.116581  16399.554703     77.374638                    
V 25  20029.547189  -3319.327778  21521.554506       .084479                    
P 26  17115.958985   -818.232449 -20965.771541     -8.995425                    
V 26 -13839.131246  21046.038890 -11994.717054      -.030020                    
P 27   3425.903203  14325.473557 -21416.018614    116.426015                    
V 27 -28777.726478   1537.143886  -3380.049270       .032990                    
P 28 -17196.302191  -4110.134729 -19457.569372    -23.714319                    
V 28 -10866.539842 -23196.650636  13871.515304       .005013                    
P 29  10617.616907  11459.155051  21571.864838     89.374011                    
V 29 -14842.761474  22773.930244  -4772.520363       .028767                    
P 30  17153.432400  19203.987964   6246.161034    209.864945                    
V 30   1986.171059   8685.478389 -30239.913919       .034475                    
P 31  22289.459061  -8105.402560  12332.319677    -55.666320                    
V 31  15211.966784   1958.204568 -26525.430548       .013561                    
P 32  -6635.908571 -25038.214983  -6220.864981    118.712615                    
V 32   5712.187151   6519.445144 -30240.630499      -.080021                    
EOF
